[{"CCSDS_OMM_VERS":"2.0","COMMENT":"GENERATED VIA SPACE-TRACK.ORG API","CREATION_DATE":"2017-10-13T23:04:26","ORIGINATOR":"18 SPCS","OBJECT_NAME":"UPSAT","OBJECT_ID":"1998-067LX","CENTER_NAME":"EARTH","REF_FRAME":"TEME","TIME_SYSTEM":"UTC","MEAN_ELEMENT_THEORY":"SGP4","EPOCH":"2017-10-13T20:11:52.233792","MEAN_MOTION":"15.60414379","ECCENTRICITY":"0.00041270","INCLINATION":"51.6384","RA_OF_ASC_NODE":"163.5625","ARG_OF_PERICENTER":"72.0454","MEAN_ANOMALY":"288.0989","EPHEMERIS_TYPE":"0","CLASSIFICATION_TYPE":"U","NORAD_CAT_ID":"42716","ELEMENT_SET_NO":"999","REV_AT_EPOCH":"2313","BSTAR":"0.00036962000000","MEAN_MOTION_DOT":"0.00030560","MEAN_MOTION_DDOT":"0.0000000000000","SEMIMAJOR_AXIS":"6764.596","PERIOD":"92.283","APOAPSIS":"389.252","PERIAPSIS":"383.669","OBJECT_TYPE":"PAYLOAD","RCS_SIZE":"SMALL","COUNTRY_CODE":"GREC","LAUNCH_DATE":"1998-11-20","SITE":"TTMTR","DECAY_DATE":null,"FILE":"2191990","GP_ID":"114802244","TLE_LINE0":"0 UPSAT","TLE_LINE1":"1 42716U 98067LX  17286.84157678  .00030560  00000-0  36962-3 0  9993","TLE_LINE2":"2 42716  51.6384 163.5625 0004127  72.0454 288.0989 15.60414379 23136"},{"CCSDS_OMM_VERS":"2.0","COMMENT":"GENERATED VIA SPACE-TRACK.ORG API","CREATION_DATE":"2017-10-14T06:07:18","ORIGINATOR":"18 SPCS","OBJECT_NAME":"UPSAT","OBJECT_ID":"1998-067LX","CENTER_NAME":"EARTH","REF_FRAME":"TEME","TIME_SYSTEM":"UTC","MEAN_ELEMENT_THEORY":"SGP4","EPOCH":"2017-10-13T21:44:05.447040","MEAN_MOTION":"15.60426418","ECCENTRICITY":"0.00041120","INCLINATION":"51.6383","RA_OF_ASC_NODE":"163.2402","ARG_OF_PERICENTER":"72.5605","MEAN_ANOMALY":"287.5838","EPHEMERIS_TYPE":"0","CLASSIFICATION_TYPE":"U","NORAD_CAT_ID":"42716","ELEMENT_SET_NO":"999","REV_AT_EPOCH":"2314","BSTAR":"0.00046830000000","MEAN_MOTION_DOT":"0.00038917","MEAN_MOTION_DDOT":"0.0000000000000","SEMIMAJOR_AXIS":"6764.561","PERIOD":"92.282","APOAPSIS":"389.208","PERIAPSIS":"383.644","OBJECT_TYPE":"PAYLOAD","RCS_SIZE":"SMALL","COUNTRY_CODE":"GREC","LAUNCH_DATE":"1998-11-20","SITE":"TTMTR","DECAY_DATE":null,"FILE":"2192041","GP_ID":"114809602","TLE_LINE0":"0 UPSAT","TLE_LINE1":"1 42716U 98067LX  17286.90561860 +.00038917 +00000-0 +46830-3 0  9991","TLE_LINE2":"2 42716 051.6383 163.2402 0004112 072.5605 287.5838 15.60426418023147"},{"CCSDS_OMM_VERS":"2.0","COMMENT":"GENERATED VIA SPACE-TRACK.ORG API","CREATION_DATE":"2017-10-14T07:01:52","ORIGINATOR":"18 SPCS","OBJECT_NAME":"UPSAT","OBJECT_ID":"1998-067LX","CENTER_NAME":"EARTH","REF_FRAME":"TEME","TIME_SYSTEM":"UTC","MEAN_ELEMENT_THEORY":"SGP4","EPOCH":"2017-10-14T02:20:45.194784","MEAN_MOTION":"15.60439801","ECCENTRICITY":"0.00041060","INCLINATION":"51.6384","RA_OF_ASC_NODE":"162.2735","ARG_OF_PERICENTER":"73.1133","MEAN_ANOMALY":"287.0310","EPHEMERIS_TYPE":"0","CLASSIFICATION_TYPE":"U","NORAD_CAT_ID":"42716","ELEMENT_SET_NO":"999","REV_AT_EPOCH":"2317","BSTAR":"0.00046993000000","MEAN_MOTION_DOT":"0.00039075","MEAN_MOTION_DDOT":"0.0000000000000","SEMIMAJOR_AXIS":"6764.522","PERIOD":"92.281","APOAPSIS":"389.165","PERIAPSIS":"383.610","OBJECT_TYPE":"PAYLOAD","RCS_SIZE":"SMALL","COUNTRY_CODE":"GREC","LAUNCH_DATE":"1998-11-20","SITE":"TTMTR","DECAY_DATE":null,"FILE":"2192117","GP_ID":"114811549","TLE_LINE0":"0 UPSAT","TLE_LINE1":"1 42716U 98067LX  17287.09774531  .00039075  00000-0  46993-3 0  9999","TLE_LINE2":"2 42716  51.6384 162.2735 0004106  73.1133 287.0310 15.60439801 23175"},{"CCSDS_OMM_VERS":"2.0","COMMENT":"GENERATED VIA SPACE-TRACK.ORG API","CREATION_DATE":"2017-10-14T15:13:16","ORIGINATOR":"18 SPCS","OBJECT_NAME":"UPSAT","OBJECT_ID":"1998-067LX","CENTER_NAME":"EARTH","REF_FRAME":"TEME","TIME_SYSTEM":"UTC","MEAN_ELEMENT_THEORY":"SGP4","EPOCH":"2017-10-14T11:34:04.158048","MEAN_MOTION":"15.60470888","ECCENTRICITY":"0.00040730","INCLINATION":"51.6383","RA_OF_ASC_NODE":"160.3398","ARG_OF_PERICENTER":"74.7203","MEAN_ANOMALY":"285.4240","EPHEMERIS_TYPE":"0","CLASSIFICATION_TYPE":"U","NORAD_CAT_ID":"42716","ELEMENT_SET_NO":"999","REV_AT_EPOCH":"2323","BSTAR":"0.00050049000000","MEAN_MOTION_DOT":"0.00041713","MEAN_MOTION_DDOT":"0.0000000000000","SEMIMAJOR_AXIS":"6764.432","PERIOD":"92.279","APOAPSIS":"389.053","PERIAPSIS":"383.542","OBJECT_TYPE":"PAYLOAD","RCS_SIZE":"SMALL","COUNTRY_CODE":"GREC","LAUNCH_DATE":"1998-11-20","SITE":"TTMTR","DECAY_DATE":null,"FILE":"2192272","GP_ID":"114814904","TLE_LINE0":"0 UPSAT","TLE_LINE1":"1 42716U 98067LX  17287.48199257  .00041713  00000-0  50049-3 0  9997","TLE_LINE2":"2 42716  51.6383 160.3398 0004073  74.7203 285.4240 15.60470888 23237"},{"CCSDS_OMM_VERS":"2.0","COMMENT":"GENERATED VIA SPACE-TRACK.ORG API","CREATION_DATE":"2017-10-14T21:44:06","ORIGINATOR":"18 SPCS","OBJECT_NAME":"UPSAT","OBJECT_ID":"1998-067LX","CENTER_NAME":"EARTH","REF_FRAME":"TEME","TIME_SYSTEM":"UTC","MEAN_ELEMENT_THEORY":"SGP4","EPOCH":"2017-10-14T13:06:17.263296","MEAN_MOTION":"15.60472112","ECCENTRICITY":"0.00040740","INCLINATION":"51.6383","RA_OF_ASC_NODE":"160.0175","ARG_OF_PERICENTER":"74.8972","MEAN_ANOMALY":"285.2472","EPHEMERIS_TYPE":"0","CLASSIFICATION_TYPE":"U","NORAD_CAT_ID":"42716","ELEMENT_SET_NO":"999","REV_AT_EPOCH":"2324","BSTAR":"0.00044028000000","MEAN_MOTION_DOT":"0.00036611","MEAN_MOTION_DDOT":"0.0000000000000","SEMIMAJOR_AXIS":"6764.429","PERIOD":"92.279","APOAPSIS":"389.050","PERIAPSIS":"383.538","OBJECT_TYPE":"PAYLOAD","RCS_SIZE":"SMALL","COUNTRY_CODE":"GREC","LAUNCH_DATE":"1998-11-20","SITE":"TTMTR","DECAY_DATE":null,"FILE":"2192339","GP_ID":"114824585","TLE_LINE0":"0 UPSAT","TLE_LINE1":"1 42716U 98067LX  17287.54603314 +.00036611 +00000-0 +44028-3 0  9999","TLE_LINE2":"2 42716 051.6383 160.0175 0004074 074.8972 285.2472 15.60472112023240"},{"CCSDS_OMM_VERS":"2.0","COMMENT":"GENERATED VIA SPACE-TRACK.ORG API","CREATION_DATE":"2017-10-14T22:38:31","ORIGINATOR":"18 SPCS","OBJECT_NAME":"UPSAT","OBJECT_ID":"1998-067LX","CENTER_NAME":"EARTH","REF_FRAME":"TEME","TIME_SYSTEM":"UTC","MEAN_ELEMENT_THEORY":"SGP4","EPOCH":"2017-10-14T16:10:43.420224","MEAN_MOTION":"15.60481493","ECCENTRICITY":"0.00040670","INCLINATION":"51.6383","RA_OF_ASC_NODE":"159.3729","ARG_OF_PERICENTER":"75.3924","MEAN_ANOMALY":"284.7520","EPHEMERIS_TYPE":"0","CLASSIFICATION_TYPE":"U","NORAD_CAT_ID":"42716","ELEMENT_SET_NO":"999","REV_AT_EPOCH":"2326","BSTAR":"0.00042942000000","MEAN_MOTION_DOT":"0.00035704","MEAN_MOTION_DDOT":"0.0000000000000","SEMIMAJOR_AXIS":"6764.402","PERIOD":"92.279","APOAPSIS":"389.018","PERIAPSIS":"383.516","OBJECT_TYPE":"PAYLOAD","RCS_SIZE":"SMALL","COUNTRY_CODE":"GREC","LAUNCH_DATE":"1998-11-20","SITE":"TTMTR","DECAY_DATE":null,"FILE":"2192380","GP_ID":"114825598","TLE_LINE0":"0 UPSAT","TLE_LINE1":"1 42716U 98067LX  17287.67411366  .00035704  00000-0  42942-3 0  9992","TLE_LINE2":"2 42716  51.6383 159.3729 0004067  75.3924 284.7520 15.60481493 23263"},{"CCSDS_OMM_VERS":"2.0","COMMENT":"GENERATED VIA SPACE-TRACK.ORG API","CREATION_DATE":"2017-10-15T07:25:51","ORIGINATOR":"18 SPCS","OBJECT_NAME":"UPSAT","OBJECT_ID":"1998-067LX","CENTER_NAME":"EARTH","REF_FRAME":"TEME","TIME_SYSTEM":"UTC","MEAN_ELEMENT_THEORY":"SGP4","EPOCH":"2017-10-15T04:28:27.379200","MEAN_MOTION":"15.60516295","ECCENTRICITY":"0.00040260","INCLINATION":"51.6383","RA_OF_ASC_NODE":"156.7947","ARG_OF_PERICENTER":"76.8522","MEAN_ANOMALY":"283.2921","EPHEMERIS_TYPE":"0","CLASSIFICATION_TYPE":"U","NORAD_CAT_ID":"42716","ELEMENT_SET_NO":"999","REV_AT_EPOCH":"2334","BSTAR":"0.00038083000000","MEAN_MOTION_DOT":"0.00031631","MEAN_MOTION_DDOT":"0.0000000000000","SEMIMAJOR_AXIS":"6764.301","PERIOD":"92.277","APOAPSIS":"388.890","PERIAPSIS":"383.443","OBJECT_TYPE":"PAYLOAD","RCS_SIZE":"SMALL","COUNTRY_CODE":"GREC","LAUNCH_DATE":"1998-11-20","SITE":"TTMTR","DECAY_DATE":null,"FILE":"2192511","GP_ID":"114830406","TLE_LINE0":"0 UPSAT","TLE_LINE1":"1 42716U 98067LX  17288.18642800  .00031631  00000-0  38083-3 0  9994","TLE_LINE2":"2 42716  51.6383 156.7947 0004026  76.8522 283.2921 15.60516295 23348"},{"CCSDS_OMM_VERS":"2.0","COMMENT":"GENERATED VIA SPACE-TRACK.ORG API","CREATION_DATE":"2017-10-15T15:22:37","ORIGINATOR":"18 SPCS","OBJECT_NAME":"UPSAT","OBJECT_ID":"1998-067LX","CENTER_NAME":"EARTH","REF_FRAME":"TEME","TIME_SYSTEM":"UTC","MEAN_ELEMENT_THEORY":"SGP4","EPOCH":"2017-10-15T12:09:31.877280","MEAN_MOTION":"15.60536107","ECCENTRICITY":"0.00040040","INCLINATION":"51.6384","RA_OF_ASC_NODE":"155.1832","ARG_OF_PERICENTER":"77.8876","MEAN_ANOMALY":"282.2566","EPHEMERIS_TYPE":"0","CLASSIFICATION_TYPE":"U","NORAD_CAT_ID":"42716","ELEMENT_SET_NO":"999","REV_AT_EPOCH":"2339","BSTAR":"0.00036035000000","MEAN_MOTION_DOT":"0.00029918","MEAN_MOTION_DDOT":"0.0000000000000","SEMIMAJOR_AXIS":"6764.244","PERIOD":"92.275","APOAPSIS":"388.817","PERIAPSIS":"383.401","OBJECT_TYPE":"PAYLOAD","RCS_SIZE":"SMALL","COUNTRY_CODE":"GREC","LAUNCH_DATE":"1998-11-20","SITE":"TTMTR","DECAY_DATE":null,"FILE":"2192688","GP_ID":"114834219","TLE_LINE0":"0 UPSAT","TLE_LINE1":"1 42716U 98067LX  17288.50661895  .00029918  00000-0  36035-3 0  9995","TLE_LINE2":"2 42716  51.6384 155.1832 0004004  77.8876 282.2566 15.60536107 23397"}]